OBJECT_NAME,OBJECT_ID,EPOCH,MEAN_MOTION,ECCENTRICITY,INCLINATION,RA_OF_ASC_NODE,ARG_OF_PERICENTER,MEAN_ANOMALY,EPHEMERIS_TYPE,CLASSIFICATION_TYPE,NORAD_CAT_ID,ELEMENT_SET_NO,REV_AT_EPOCH,BSTAR,MEAN_MOTION_DOT,MEAN_MOTION_DDOT
SES-1,2010-016A,2026-06-08T11:11:30.274368,1.00271743,.0002775,0.0151,321.1589,118.0488,244.5331,0,U,36516,999,5894,0,-.99E-6,0
ASTRA 3B,2010-021A,2026-06-08T08:21:22.509216,1.00274280,.000447,1.4479,83.6606,351.9180,330.0017,0,U,36581,999,5877,0,.153E-5,0
COMSATBW-2,2010-021B,2026-06-08T06:36:01.727136,1.00269942,.0002716,0.0214,33.8866,57.0974,277.8925,0,U,36582,999,5886,0,.104E-5,0
BEIDOU-2 G3,2010-024A,2026-06-08T08:37:42.014784,1.00272900,.0008405,4.4940,61.5520,350.9162,53.4094,0,U,36590,999,5868,0,-.121E-5,0
BADR-5,2010-025A,2026-06-08T06:41:01.248288,1.00278136,.0003452,0.0630,115.0337,66.9105,205.5484,0,U,36592,999,5312,0,.17E-5,0
COMS 1,2010-032A,2026-06-03T23:47:39.107040,1.00270643,.0001016,4.7750,75.5286,4.5847,297.3769,0,U,36744,999,5095,0,-.334E-5,0
ARABSAT-5A,2010-032B,2026-06-08T06:41:01.248288,1.00269665,.0005478,0.0726,51.9991,46.1236,289.2834,0,U,36745,999,5855,0,.169E-5,0
ECHOSTAR 15,2010-034A,2026-06-08T09:20:38.853312,1.00271664,.0001809,0.0109,16.0919,61.6970,200.3402,0,U,36792,999,5823,0,.15E-6,0
BEIDOU-2 IGSO-1,2010-036A,2026-06-07T16:50:55.213152,1.00275414,.00592234,54.3007,163.0453,225.1119,228.3319,0,U,36828,999,5800,0,-.45E-6,0
NILESAT 201,2010-037A,2026-06-08T08:13:00.810336,1.00271997,.0004427,0.0160,154.7363,312.1594,266.1023,0,U,36830,999,5828,0,-.42E-6,0
RASCOM-QAF 1R,2010-037B,2026-06-08T06:33:09.500832,1.00270747,.0006759,0.0034,11.3021,63.2859,283.2585,0,U,36831,999,5821,0,.34E-6,0
AEHF-1 (USA 214),2010-039A,2026-06-08T00:00:13.275360,1.00270573,.00040761,8.1955,68.1666,4.7350,213.4774,0,U,36868,999,5356,0,.161E-5,0
XM-5,2010-053A,2026-06-08T11:07:30.656064,1.00271657,.00028,0.0665,272.8225,282.8004,112.9218,0,U,37185,999,5739,0,-.7E-7,0
BSAT-3B,2010-056B,2026-06-08T12:11:34.493568,1.00272475,.0001392,0.0503,236.1916,307.4499,6.0076,0,U,37207,999,5201,0,-.334E-5,0
BEIDOU-2 G4,2010-057A,2026-06-08T12:25:38.803872,1.00272006,.0004839,3.6246,68.9975,200.6206,333.7174,0,U,37210,999,5720,0,-.96E-6,0
SKYTERRA 1,2010-061A,2026-06-07T16:22:04.229760,1.00270898,.00027982,5.1042,50.8588,21.1699,328.2468,0,U,37218,999,5709,0,-.104E-5,0
HYLAS 1,2010-065A,2026-06-08T01:29:38.614272,1.00272486,.0001027,5.6195,73.1295,316.1676,263.3742,0,U,37237,999,679,0,.104E-5,0
INTELSAT 17 (IS-17),2010-065B,2026-06-08T11:59:05.689824,1.00272364,.0002591,0.0089,107.4054,343.7061,51.5496,0,U,37238,999,5316,0,.14E-6,0
BEIDOU-2 IGSO-2,2010-068A,2026-06-06T17:56:34.315296,1.00287050,.00549834,47.5684,271.9632,212.5902,147.2585,0,U,37256,999,5669,0,-.212E-5,0
EUTELSAT KA-SAT 9A,2010-069A,2026-06-08T08:17:30.379200,1.00269607,.0003905,0.0607,10.4819,118.4325,261.2030,0,U,37258,999,4391,0,.77E-6,0
HISPASAT 30W-5,2010-070A,2026-06-08T08:06:01.480032,1.00270286,.0005174,0.0631,105.1760,354.3676,248.7043,0,U,37264,999,5309,0,-.2E-5,0
KOREASAT 6,2010-070B,2026-06-08T11:47:38.731200,1.00271568,.0002246,0.0318,80.7899,3.7101,149.1851,0,U,37265,999,5668,0,-.95E-6,0
BEIDOU-2 IGSO-3,2011-013A,2026-06-07T23:15:17.777664,1.00270210,.00345336,62.3942,40.2405,184.6500,128.2544,0,U,37384,999,5556,0,-.187E-5,0
INTELSAT 28 (IS-28),2011-016A,2026-06-08T08:05:53.990880,1.00268686,.0003882,1.7823,82.7324,354.6681,269.0965,0,U,37392,999,5319,0,-.209E-5,0
YAHSAT 1A,2011-016B,2026-06-08T11:55:13.562400,1.00269291,.0002906,0.0162,337.7013,112.3272,38.1517,0,U,37393,999,4232,0,0,0
SBIRS GEO-1 (USA 230),2011-019A,2026-06-08T05:04:22.642752,1.00272120,.000214,4.5169,53.1324,14.9411,316.4179,0,U,37481,999,5530,0,.114E-5,0
TELSTAR 14R,2011-021A,2026-06-08T11:22:21.732096,1.00272340,.00024,0.0198,56.8874,6.2476,301.3301,0,U,37602,999,5574,0,-.264E-5,0
GSAT-8,2011-022A,2026-06-08T11:55:58.491264,1.00271024,.0002238,2.1076,81.9293,210.6897,198.3315,0,U,37605,999,5313,0,.101E-5,0
ST-2,2011-022B,2026-06-08T12:05:27.581280,1.00270727,.0001815,0.0223,73.0516,21.8549,71.3747,0,U,37606,999,5519,0,-.195E-5,0
ZHONGXING-10,2011-026A,2026-06-08T12:04:42.650688,1.00270843,.0003658,1.0235,84.3026,357.8847,81.4208,0,U,37677,999,5491,0,-.173E-5,0
SES-3,2011-035A,2026-06-08T11:10:52.832064,1.00270955,.000267,1.3032,83.1846,349.4655,248.9205,0,U,37748,999,5450,0,-.86E-6,0
KAZSAT-2,2011-035B,2026-06-08T12:04:57.628128,1.00269630,.0001308,0.0348,245.4600,259.4350,19.7435,0,U,37749,999,5331,0,-.181E-5,0
