SES-1                   
1 36516U 10016A   26159.46632262 -.00000099  00000+0  00000+0 0  9990
2 36516   0.0151 321.1589 0002775 118.0488 244.5331  1.00271743 58943
ASTRA 3B                
1 36581U 10021A   26159.34817719  .00000153  00000+0  00000+0 0  9997
2 36581   1.4479  83.6606 0004470 351.9180 330.0017  1.00274280 58776
COMSATBW-2              
1 36582U 10021B   26159.27501999  .00000104  00000+0  00000+0 0  9996
2 36582   0.0214  33.8866 0002716  57.0974 277.8925  1.00269942 58865
BEIDOU-2 G3             
1 36590U 10024A   26159.35951406 -.00000121  00000+0  00000+0 0  9999
2 36590   4.4940  61.5520 0008405 350.9162  53.4094  1.00272900 58681
BADR-5                  
1 36592U 10025A   26159.27848667  .00000170  00000+0  00000+0 0  9990
2 36592   0.0630 115.0337 0003452  66.9105 205.5484  1.00278136 53124
COMS 1                  
1 36744U 10032A   26154.99142485 -.00000334  00000+0  00000+0 0  9999
2 36744   4.7750  75.5286 0001016   4.5847 297.3769  1.00270643 50953
ARABSAT-5A              
1 36745U 10032B   26159.27848667  .00000169  00000+0  00000+0 0  9996
2 36745   0.0726  51.9991 0005478  46.1236 289.2834  1.00269665 58556
ECHOSTAR 15             
1 36792U 10034A   26159.38933858  .00000015  00000+0  00000+0 0  9999
2 36792   0.0109  16.0919 0001809  61.6970 200.3402  1.00271664 58238
BEIDOU-2 IGSO-1         
1 36828U 10036A   26158.70202793 -.00000045  00000+0  00000+0 0  9997
2 36828  54.3007 163.0453 0059223 225.1119 228.3319  1.00275414 58007
NILESAT 201             
1 36830U 10037A   26159.34237049 -.00000042  00000+0  00000+0 0  9991
2 36830   0.0160 154.7363 0004427 312.1594 266.1023  1.00271997 58289
RASCOM-QAF 1R           
1 36831U 10037B   26159.27302663  .00000034  00000+0  00000+0 0  9999
2 36831   0.0034  11.3021 0006759  63.2859 283.2585  1.00270747 58215
AEHF-1 (USA 214)        
1 36868U 10039A   26159.00015365  .00000161  00000+0  00000+0 0  9993
2 36868   8.1955  68.1666 0004076   4.7350 213.4774  1.00270573 53562
XM-5                    
1 37185U 10053A   26159.46354926 -.00000007  00000+0  00000+0 0  9991
2 37185   0.0665 272.8225 0002800 282.8004 112.9218  1.00271657 57392
BSAT-3B                 
1 37207U 10056B   26159.50803812 -.00000334  00000+0  00000+0 0  9990
2 37207   0.0503 236.1916 0001392 307.4499   6.0076  1.00272475 52013
BEIDOU-2 G4             
1 37210U 10057A   26159.51781023 -.00000096  00000+0  00000+0 0  9990
2 37210   3.6246  68.9975 0004839 200.6206 333.7174  1.00272006 57200
SKYTERRA 1              
1 37218U 10061A   26158.68199340 -.00000104  00000+0  00000+0 0  9995
2 37218   5.1042  50.8588 0002798  21.1699 328.2468  1.00270898 57092
HYLAS 1                 
1 37237U 10065A   26159.06225248  .00000104  00000+0  00000+0 0  9999
2 37237   5.6195  73.1295 0001027 316.1676 263.3742  1.00272486  6796
INTELSAT 17 (IS-17)     
1 37238U 10065B   26159.49937141  .00000014  00000+0  00000+0 0  9999
2 37238   0.0089 107.4054 0002591 343.7061  51.5496  1.00272364 53164
BEIDOU-2 IGSO-2         
1 37256U 10068A   26157.74761939 -.00000212  00000+0  00000+0 0  9999
2 37256  47.5684 271.9632 0054983 212.5902 147.2585  1.00287050 56690
EUTELSAT KA-SAT 9A      
1 37258U 10069A   26159.34549050  .00000077  00000+0  00000+0 0  9996
2 37258   0.0607  10.4819 0003905 118.4325 261.2030  1.00269607 43916
HISPASAT 30W-5          
1 37264U 10070A   26159.33751713 -.00000200  00000+0  00000+0 0  9994
2 37264   0.0631 105.1760 0005174 354.3676 248.7043  1.00270286 53096
KOREASAT 6              
1 37265U 10070B   26159.49142050 -.00000095  00000+0  00000+0 0  9992
2 37265   0.0318  80.7899 0002246   3.7101 149.1851  1.00271568 56688
BEIDOU-2 IGSO-3         
1 37384U 11013A   26158.96895576 -.00000187  00000+0  00000+0 0  9993
2 37384  62.3942  40.2405 0034533 184.6500 128.2544  1.00270210 55560
INTELSAT 28 (IS-28)     
1 37392U 11016A   26159.33743045 -.00000209  00000+0  00000+0 0  9995
2 37392   1.7823  82.7324 0003882 354.6681 269.0965  1.00268686 53199
YAHSAT 1A               
1 37393U 11016B   26159.49668475  .00000000  00000+0  00000+0 0  9994
2 37393   0.0162 337.7013 0002906 112.3272  38.1517  1.00269291 42321
SBIRS GEO-1 (USA 230)   
1 37481U 11019A   26159.21137318  .00000114  00000+0  00000+0 0  9998
2 37481   4.5169  53.1324 0002140  14.9411 316.4179  1.00272120 55304
TELSTAR 14R             
1 37602U 11021A   26159.47386264 -.00000264  00000+0  00000+0 0  9997
2 37602   0.0198  56.8874 0002400   6.2476 301.3301  1.00272340 55748
GSAT-8                  
1 37605U 11022A   26159.49720476  .00000101  00000+0  00000+0 0  9999
2 37605   2.1076  81.9293 0002238 210.6897 198.3315  1.00271024 53138
ST-2                    
1 37606U 11022B   26159.50379145 -.00000195  00000+0  00000+0 0  9999
2 37606   0.0223  73.0516 0001815  21.8549  71.3747  1.00270727 55192
ZHONGXING-10            
1 37677U 11026A   26159.50327142 -.00000173  00000+0  00000+0 0  9997
2 37677   1.0235  84.3026 0003658 357.8847  81.4208  1.00270843 54917
SES-3                   
1 37748U 11035A   26159.46588926 -.00000086  00000+0  00000+0 0  9993
2 37748   1.3032  83.1846 0002670 349.4655 248.9205  1.00270955 54504
KAZSAT-2                
1 37749U 11035B   26159.50344477 -.00000181  00000+0  00000+0 0  9996
2 37749   0.0348 245.4600 0001308 259.4350  19.7435  1.00269630 53316
